BEIDOU-2 IGSO-5 (C10)   
1 37948U 11073A   24189.71210965 -.00000192  00000+0  00000+0 0  9999
2 37948  48.9723 280.2602 0101676 220.2518 136.6500  1.00289492 46283
BEIDOU-2 G5 (C05)       
1 38091U 12008A   24189.56159684  .00000051  00000+0  00000+0 0  9994
2 38091   2.1247  71.0358 0004810 263.7983 212.1278  1.00277141 45256
BEIDOU-2 M3 (C11)       
1 38250U 12018A   24189.87403493 -.00000104  00000+0  00000+0 0  9996
2 38250  56.3247 328.6544 0021524 261.0653  98.6816  1.86231343 83084
BEIDOU-2 M4 (C12)       
1 38251U 12018B   24188.73023958 -.00000107  00000+0  00000+0 0  9998
2 38251  56.2323 327.9624 0012352 261.5105  98.3370  1.86232020 82710
BEIDOU-2 M6 (C14)       
1 38775U 12050B   24190.05069632 -.00000045  00000+0  00000+0 0  9993
2 38775  55.9283  86.4655 0013392 342.7551  17.2427  1.86231252 80453
BEIDOU-2 G6 (C02)       
1 38953U 12059A   24189.56658951 -.00000180  00000+0  00000+0 0  9992
2 38953   2.6110  80.3764 0008830 319.1519 174.4392  1.00269131 42791
GSAT0102 (PRN E12)      
1 37847U 11060B   24189.29379473 -.00000100  00000+0  00000+0 0  9995
2 37847  57.1305   0.9896 0002586  16.2207 160.3380  1.70475453 79028
GSAT0103 (PRN E19)      
1 38857U 12055A   24183.25389671 -.00000009  00000+0  00000+0 0  9991
2 38857  55.4124 121.2192 0004732 281.2563  78.6505  1.70473498 72806
GSAT0201 (PRN E18)      
1 40128U 14050A   24188.49113454 -.00000092  00000+0  00000+0 0  9999
2 40128  49.6397 302.2888 1612072 152.0120 217.7162  1.85519543 65138
GSAT0202 (PRN E14)      
1 40129U 14050B   24188.21036770 -.00000091  00000+0  00000+0 0  9994
2 40129  49.6571 301.3771 1610909 152.8009 216.6766  1.85520190 67292
LUCH-5A                 
1 37951U 11074B   24189.48521876 -.00000056  00000+0  00000+0 0  9993
2 37951   6.9365  84.6576 0003858  26.9854 155.9302  1.00274518 45934
SES-5                   
1 38652U 12036A   24189.83714351  .00000031  00000+0  00000+0 0  9994
2 38652   0.0661 295.1321 0001946 165.9324 131.5538  1.00272924 43956
GSAT-10                 
1 38779U 12051B   24189.63795049 -.00000168  00000+0  00000+0 0  9994
2 38779   0.0169 286.7772 0000617  54.3471 257.6038  1.00270283 43178
LUCH-5B                 
1 38977U 12061A   24189.96021840 -.00000143  00000+0  00000+0 0  9995
2 38977   8.9331  56.5260 0004544 102.4927  96.7916  1.00272603 43068
IRNSS-1A                
1 39199U 13034A   24189.77514803  .00000055  00000+0  00000+0 0  9999
2 39199  34.1221  74.1495 0017929 180.6145   5.5652  1.00278630 40531
ASTRA 5B                
1 39617U 14011B   24189.76923050  .00000134  00000+0  00000+0 0  9995
2 39617   0.0694 308.6258 0001833 166.8876 111.1092  1.00269951 37756
IRNSS-1B                
1 39635U 14017A   24186.77007163  .00000127  00000+0  00000+0 0  9999
2 39635  28.9493 252.5284 0022860 187.0518 176.1040  1.00276548 37652
LUCH-5V                 
1 39727U 14023A   24190.14119113 -.00000272  00000+0  00000+0 0  9995
2 39727   3.3483  75.9176 0002350  85.7171 270.4617  1.00269048555401
IRNSS-1C                
1 40269U 14061A   24189.78110095 -.00000168  00000+0  00000+0 0  9992
2 40269   4.7208 104.2408 0021872   7.2617 178.9306  1.00273331 35716
COSMOS 2476 (744)       
1 37867U 11064A   24188.28182510 -.00000029  00000+0  00000+0 0  9993
2 37867  64.8931  96.9438 0022284 237.8689 305.2819  2.13101700 98611
COSMOS 2477 (745)       
1 37868U 11064B   24189.38410315 -.00000020  00000+0  00000+0 0  9994
2 37868  64.9008  96.9791 0019482 238.9899 247.9747  2.13103233 98638
COSMOS 2475 (743)       
1 37869U 11064C   24189.45244926 -.00000019  00000+0  00000+0 0  9994
2 37869  64.9076  96.9919 0024451 254.1921 243.5213  2.13102068 98640
COSMOS 2485 (747)       
1 39155U 13019A   24187.04644993 -.00000040  00000+0  00000+0 0  9991
2 39155  65.0501  97.5738 0022619 233.8791 125.9291  2.13101906 87102
COSMOS 2492 (754)       
1 39620U 14012A   24187.94030093 -.00000086  00000+0  00000+0 0  9991
2 39620  65.6666 337.9989 0010886 325.4712  34.4474  2.13103201 80087
COSMOS 2500 (755)       
1 40001U 14032A   24189.99644793 -.00000080  00000+0  00000+0 0  9997
2 40001  65.6030 337.7334 0006926 187.2477 172.7348  2.13105945 78340
GPS BIIF-3  (PRN 24)    
1 38833U 12053A   24189.34237431  .00000023  00000+0  00000+0 0  9990
2 38833  53.5191 172.6457 0152757  56.0257 305.3892  2.00559003 85204
GPS BIIF-4  (PRN 27)    
1 39166U 13023A   24189.20521929 -.00000063  00000+0  00000+0 0  9996
2 39166  55.0948 297.7759 0123798  45.0099 316.0097  2.00562775 81640
GPS BIIF-5  (PRN 30)    
1 39533U 14008A   24189.20517607  .00000028  00000+0  00000+0 0  9996
2 39533  53.6017 178.2515 0073372 220.9974 138.4331  2.00569684 75444
GPS BIIF-6  (PRN 06)    
1 39741U 14026A   24188.98419443 -.00000105  00000+0  00000+0 0  9997
2 39741  56.7097 359.1006 0030889 316.3519  43.4109  2.00567026 74291
GPS BIIF-7  (PRN 09)    
1 40105U 14045A   24189.07738401 -.00000027  00000+0  00000+0 0  9996
2 40105  54.9387 116.8140 0026246 114.8315 245.4248  2.00567763 71836
GPS BIIF-8  (PRN 03)    
1 40294U 14068A   24188.95072074 -.00000065  00000+0  00000+0 0  9995
2 40294  56.4374  58.4689 0054477  62.9459 297.6762  2.00561139 70960
